2026-023D               
1 67677U 26023D   26048.28333791  .00013673  00000+0  59075-3 0  9990
2 67677  96.6468 123.5953 0019161 198.1092 161.9467 15.22409466  1745
2026-023E               
1 67678U 26023E   26048.28267943  .00015995  00000+0  68825-3 0  9998
2 67678  96.6361 123.5960 0019013 197.4366 162.6222 15.22520310  1747
2026-023F               
1 67679U 26023F   26048.28162903  .00017299  00000+0  74031-3 0  9994
2 67679  96.6368 126.0929 0020977 192.0285 168.0455 15.22653073  1730
2026-023G               
1 67680U 26023G   26048.28190137  .00016027  00000+0  68619-3 0  9999
2 67680  96.6297 126.0903 0022551 188.6090 171.4765 15.22620151  1733
2026-023H               
1 67681U 26023H   26047.69023008  .00000971  00000+0  44030-4 0  9999
2 67681  96.6443 125.5685 0022459 190.0290 170.0504 15.22597278  1643
2026-023J               
1 67682U 26023J   26048.28141641  .00014173  00000+0  60607-3 0  9996
2 67682  96.6397 126.1047 0022769 184.7866 175.3158 15.22682578  1735
ISS OBJECT XZ           
1 67683U 98067XZ  26047.65741969  .00039055  00000+0  68494-3 0  9991
2 67683  51.6311 176.2115 0010453 117.3582 242.8472 15.50110674  1529
GXIBA-1                 
1 67684U 98067YA  26047.65278760  .00074552  00000+0  12496-2 0  9997
2 67684  51.6308 176.1816 0012102 110.9325 249.2961 15.51081436  1528
CORAL                   
1 67685U 98067YB  26047.65651785  .00044575  00000+0  77477-3 0  9993
2 67685  51.6312 176.2061 0012396 113.0551 247.1746 15.50278727  1525
ISS OBJECT YC           
1 67686U 98067YC  26047.59123449  .00052403  00000+0  90420-3 0  9990
2 67686  51.6314 176.5206 0007796  86.2899 273.8981 15.50464751  1516
LEOPARD                 
1 67687U 98067YD  26047.65689113  .00043795  00000+0  76465-3 0  9990
2 67687  51.6316 176.2085 0007839  89.2385 270.9502 15.50209521  1443
ISS OBJECT YE           
1 67688U 98067YE  26047.65599918  .00048248  00000+0  83591-3 0  9990
2 67688  51.6315 176.2033 0007765  86.9328 273.2550 15.50385572  1445
